ONEWEB-0201             
1 48241U 21031AH  24051.39892303 -.00000095  00000+0 -29201-3 0  9997
2 48241  87.8923  98.4658 0001760  98.0879 262.0451 13.14503207137000
ONEWEB-0207             
1 48242U 21031AJ  24050.84547541 -.00000179  00000+0 -51734-3 0  9997
2 48242  87.8921  98.5436 0001841 106.4404 253.6928 13.14500993136847
ONEWEB-0208             
1 48243U 21031AK  24050.82724694  .00000133  00000+0  32550-3 0  9995
2 48243  87.8923  98.5629 0001705  94.3239 265.8085 13.14503373136859
ONEWEB-0200             
1 48244U 21031AL  24050.86689760 -.00000051  00000+0 -17320-3 0  9993
2 48244  87.8920  98.5538 0001720  92.7326 267.4001 13.14502249136781
ONEWEB-0217             
1 48245U 21031AM  24050.88274830  .00000238  00000+0  60825-3 0  9997
2 48245  87.8921  98.5353 0001643  88.0553 272.0764 13.14503673136737
ONEWEB-0211             
1 48767U 21045A   24051.13185750  .00000080  00000+0  17784-3 0  9993
2 48767  87.8943  67.9694 0001887  91.0409 269.0938 13.15553164134044
ONEWEB-0223             
1 48768U 21045B   24051.45827117 -.00000331  00000+0 -91338-3 0  9997
2 48768  87.8945  67.9074 0002334  73.7216 286.4171 13.15547987134082
ONEWEB-0230             
1 48769U 21045C   24051.04947473  .00000144  00000+0  34882-3 0  9992
2 48769  87.8945  68.0617 0002034  92.4968 267.6395 13.15550358134262
ONEWEB-0237             
1 48770U 21045D   24050.96232990  .00000200  00000+0  49586-3 0  9995
2 48770  87.8953  68.0030 0002181  80.8230 279.3147 13.15549372132861
ONEWEB-0235             
1 48771U 21045E   24051.46938237  .00000025  00000+0  32244-4 0  9998
2 48771  87.8941  67.9212 0002492  76.8603 283.2805 13.15548235134047
ONEWEB-0242             
1 48772U 21045F   24051.46304410 -.00000031  00000+0 -11531-3 0  9993
2 48772  87.8942  67.9119 0002104  88.7219 271.4153 13.15548682134096
ONEWEB-0241             
1 48773U 21045G   24050.76584785 -.00000060  00000+0 -19383-3 0  9996
2 48773  87.8952  68.0870 0001815  76.7314 283.4019 13.15548923132781
ONEWEB-0243             
1 48774U 21045H   24050.94965099  .00000209  00000+0  52194-3 0  9998
2 48774  87.8952  68.0084 0002254  78.4486 281.6897 13.15561508132830
ONEWEB-0222             
1 48775U 21045J   24051.46878076  .00000052  00000+0  10340-3 0  9998
2 48775  87.8940  67.9226 0001916  80.5563 279.5784 13.16034647134066
ONEWEB-0244             
1 48776U 21045K   24050.95915655  .00000248  00000+0  62538-3 0  9990
2 48776  87.8941  68.0073 0002172  91.1722 268.9657 13.15549822133447
ONEWEB-0247             
1 48777U 21045L   24050.80388854  .00000196  00000+0  48575-3 0  9997
2 48777  87.8949  68.0700 0002823  73.3740 286.7701 13.15548115132865
ONEWEB-0245             
1 48778U 21045M   24051.10335289  .00000180  00000+0  44297-3 0  9996
2 48778  87.8940  68.0074 0001729  81.9251 278.2076 13.15549369134008
ONEWEB-0229             
1 48779U 21045N   24050.94648878  .00000161  00000+0  39475-3 0  9990
2 48779  87.8941  68.0308 0002090  88.2781 271.8589 13.15548762132888
ONEWEB-0228             
1 48780U 21045P   24050.96153745  .00000203  00000+0  50580-3 0  9995
2 48780  87.8941  68.0059 0002010  89.3229 270.8132 13.15548797132807
ONEWEB-0232             
1 48781U 21045Q   24051.48681408  .00000209  00000+0  52238-3 0  9994
2 48781  87.8936  67.9276 0002019  88.4580 271.6782 13.15548525134317
ONEWEB-0231             
1 48782U 21045R   24051.08432674 -.00000022  00000+0 -92419-4 0  9991
2 48782  87.8950  68.0198 0002094  84.5192 275.6177 13.15548791133976
ONEWEB-0234             
1 48783U 21045S   24050.95202313  .00000148  00000+0  36029-3 0  9993
2 48783  87.8942  68.0145 0000740 103.8715 256.2498 13.15550718132952
ONEWEB-0238             
1 48784U 21045T   24050.75394858 -.00000214  00000+0 -60257-3 0  9994
2 48784  87.8943  68.0727 0001789  93.4309 266.7026 13.15547819132824
ONEWEB-0240             
1 48785U 21045U   24051.06770061 -.00000057  00000+0 -18529-3 0  9994
2 48785  87.8943  67.9781 0001873  76.0686 284.0652 13.15548986134019
ONEWEB-0246             
1 48786U 21045V   24051.44244088  .00000003  00000+0 -26468-4 0  9994
2 48786  87.8945  67.9058 0002054  89.6247 270.5119 13.15557316133939
ONEWEB-0210             
1 48787U 21045W   24050.96073126  .00000214  00000+0  53522-3 0  9997
2 48787  87.8944  68.0089 0002625  87.7042 272.4389 13.15549917132792
ONEWEB-0214             
1 48788U 21045X   24050.97026353  .00000188  00000+0  46421-3 0  9999
2 48788  87.8943  67.9956 0002608  90.2177 269.9252 13.15548801132760
ONEWEB-0221             
1 48789U 21045Y   24050.74840025  .00000025  00000+0  32822-4 0  9996
2 48789  87.8944  68.0546 0001974  82.2900 277.8454 13.15550336132824
ONEWEB-0213             
1 48790U 21045Z   24051.49789143  .00000180  00000+0  44527-3 0  9990
2 48790  87.8944  67.9206 0002133  80.3471 279.7901 13.15549577134114
ONEWEB-0212             
1 48791U 21045AA  24050.79041139  .00000079  00000+0  17543-3 0  9994
2 48791  87.8945  68.0423 0001826  92.3977 267.7362 13.15549009132881
ONEWEB-0227             
1 48792U 21045AB  24051.47413888  .00000081  00000+0  18182-3 0  9998
2 48792  87.8943  67.9225 0001879  87.0588 273.0758 13.15549179134053
ONEWEB-0226             
1 48793U 21045AC  24050.78327669  .00000084  00000+0  18921-3 0  9997
2 48793  87.8942  68.0679 0002432  83.4392 276.7015 13.15548771132801
ONEWEB-0224             
1 48794U 21045AD  24051.50740872  .00000073  00000+0  16056-3 0  9999
2 48794  87.8949  67.9396 0001702  64.6991 295.4315 13.15549457133947
ONEWEB-0233             
1 48795U 21045AE  24051.50344723  .00000157  00000+0  38214-3 0  9998
2 48795  87.8947  67.9531 0002124  89.4841 270.6533 13.15548812133957
ONEWEB-0190             
1 48796U 21045AF  24051.49947553  .00000161  00000+0  39459-3 0  9994
2 48796  87.8949  67.9159 0002613  67.9612 292.1796 13.15547020134036
ONEWEB-0236             
1 48797U 21045AG  24051.44085634  .00000026  00000+0  33801-4 0  9999
2 48797  87.8952  67.9170 0001854  87.0219 273.1123 13.15548862133910
ONEWEB-0248             
1 48798U 21045AH  24050.76900721 -.00000059  00000+0 -18990-3 0  9996
2 48798  87.8943  68.0522 0001898  65.2890 294.8438 13.15549453132864
ONEWEB-0225             
1 48799U 21045AJ  24051.09543045  .00000103  00000+0  23843-3 0  9997
2 48799  87.8945  67.9935 0002085  77.3845 282.7519 13.15548624134054
ONEWEB-0215             
1 48800U 21045AK  24051.06531206  .00000019  00000+0  15151-4 0  9993
2 48800  87.8941  67.9800 0002208  64.8088 295.3271 13.15550376133906
ONEWEB-0216             
1 48801U 21045AL  24050.77060135 -.00000738  00000+0 -19951-2 0  9999
2 48801  87.8939  68.0788 0002132  92.4712 267.6662 13.15552550132752
ONEWEB-0239             
1 48802U 21045AM  24051.45986626 -.00000039  00000+0 -13801-3 0  9991
2 48802  87.8951  67.9061 0002044  63.8197 296.3143 13.15549379134020
ONEWEB-0249             
1 48967U 21060A   24050.92602653 -.00000015  00000+0 -72641-4 0  9998
2 48967  87.9062  37.5852 0001846  86.4377 273.6965 13.16594823127990
ONEWEB-0250             
1 48968U 21060B   24050.93079376 -.00000043  00000+0 -14660-3 0  9997
2 48968  87.9061  37.5684 0001824  75.5459 284.5874 13.16594010127975
ONEWEB-0252             
1 48970U 21060D   24051.48967849  .00000143  00000+0  34074-3 0  9992
2 48970  87.9066  37.4660 0002041  86.3989 273.7375 13.16595046129402
ONEWEB-0253             
1 48971U 21060E   24050.94663432 -.00000070  00000+0 -21733-3 0  9993
2 48971  87.9061  37.5889 0002098  78.4363 281.7003 13.16592856127975
ONEWEB-0254             
1 48972U 21060F   24051.48810189  .00000136  00000+0  32166-3 0  9990
2 48972  87.9065  37.4565 0002097  77.1465 282.9900 13.16593748129329
ONEWEB-0255             
1 48973U 21060G   24050.99412380 -.00000039  00000+0 -13577-3 0  9996
2 48973  87.9062  37.5901 0001853  83.9349 276.1993 13.16594214129345
ONEWEB-0256             
1 48974U 21060H   24050.94426019  .00000002  00000+0 -29232-4 0  9991
2 48974  87.9065  37.5996 0002007  90.1023 270.0338 13.16593994128017
ONEWEB-0257             
1 48975U 21060J   24050.90068985  .00000044  00000+0  82659-4 0  9999
2 48975  87.9065  37.5821 0002081  86.1114 274.0254 13.16595758127967
ONEWEB-0258             
1 48976U 21060K   24050.90229221 -.00000003  00000+0 -41336-4 0  9996
2 48976  87.9065  37.6109 0001828  84.4113 275.7226 13.16594519127978
ONEWEB-0259             
1 48977U 21060L   24050.89596068 -.00000009  00000+0 -56826-4 0  9997
2 48977  87.9063  37.5972 0001729  76.4484 283.6839 13.16594103128008
ONEWEB-0260             
1 48978U 21060M   24050.96561846 -.00000101  00000+0 -29810-3 0  9997
2 48978  87.9063  37.6125 0002483  94.0873 266.0542 13.16594456127990
ONEWEB-0261             
1 48979U 21060N   24051.00835981  .00000037  00000+0  63238-4 0  9997
2 48979  87.9064  37.5937 0002308  74.6272 285.5114 13.16593797129355
ONEWEB-0262             
1 48980U 21060P   24051.44533588  .00000022  00000+0  24956-4 0  9993
2 48980  87.9064  37.4739 0001810  69.2650 290.8675 13.16596223129373
ONEWEB-0263             
1 48981U 21060Q   24051.02101415  .00000070  00000+0  14977-3 0  9992
2 48981  87.9066  37.5712 0002148  72.3185 287.8180 13.16596047129282
ONEWEB-0264             
1 48982U 21060R   24050.90625412 -.00000040  00000+0 -13726-3 0  9997
2 48982  87.9066  37.6065 0001950  84.1164 276.0189 13.16594041127978
ONEWEB-0266             
1 48984U 21060T   24051.45958850  .00000035  00000+0  57637-4 0  9997
2 48984  87.9063  37.4767 0001723  86.9405 273.1923 13.16595758129332
ONEWEB-0267             
1 48985U 21060U   24051.01470634  .00000095  00000+0  21542-3 0  9990
2 48985  87.9061  37.5665 0002264  81.2302 278.9085 13.16594153129277
ONEWEB-0268             
1 48986U 21060V   24050.98303360 -.00000013  00000+0 -66775-4 0  9997
2 48986  87.9064  37.5790 0002058  87.1806 272.9560 13.16595740129539
